SHERPA-LTC2             
1 53754U 22107BG  26203.88561024  .00003297  00000+0  17664-3 0  9990
2 53754  53.2365  69.1826 0393248 326.2838  31.3674 14.69960392207791
CENTISPACE-1 S3         
1 53757U 22108A   26204.25390503  .00000202  00000+0  78796-4 0  9995
2 53757  53.5323 266.1175 0010833  83.0091 277.2116 14.61288678206807
CENTISPACE-1 S4         
1 53758U 22108B   26204.22127166  .00000230  00000+0  83333-4 0  9990
2 53758  53.5297 263.5985 0010253  72.3794 287.8301 14.61974157206835
BLUEWALKER-3            
1 53807U 22111AL  26203.77921773  .00004863  00000+0  13556-3 0  9999
2 53807  53.2275 226.8231 0004789 299.0530  60.9995 15.38668225215685
YUNHAI-1 03             
1 53877U 22115A   26204.29306831  .00000301  00000+0  12646-3 0  9992
2 53877  98.5551 201.9847 0003708 311.3328  48.7537 14.32741706200680
CENTISPACE-1 S5         
1 54020U 22126A   26204.15750895  .00000673  00000+0  16668-3 0  9993
2 54020  54.9991  69.0119 0013942 139.8947 220.3079 14.63067678202304
CENTISPACE-1 S6         
1 54021U 22126B   26204.23711985  .00000452  00000+0  12584-3 0  9998
2 54021  54.9994  70.7283 0015711 141.5279 218.6838 14.62325736202273
OTB-3-GAZELLE           
1 54023U 22127A   26203.70864727  .00000119  00000+0  48808-4 0  9994
2 54023  98.3967 194.8758 0014462  82.2362 278.0469 14.42685986199480
ASO-S                   
1 54029U 22129A   26204.29249446  .00000199  00000+0  60257-4 0  9992
2 54029  98.2762 208.8581 0013955 347.5939  12.4911 14.52077838200668
HJ-2E                   
1 54035U 22132A   26204.29990346  .00008361  00000+0  35922-3 0  9994
2 54035  97.3812 208.0391 0018328 238.9304 121.0135 15.22774804209917
COSMOS 2561             
1 54109U 22137A   26201.88046605  .00009330  00000+0  15383-3 0  9999
2 54109  96.9163 259.6361 0008242 255.0048 105.0294 15.52463802211570
GONETS-M 23             
1 54150U 22139A   26204.32539913  .00000029  00000+0  14028-3 0  9999
2 54150  82.5101 325.8372 0022404 141.4240 218.8446 12.42892237170137
GONETS-M 24             
1 54151U 22139B   26204.29845343  .00000019  00000+0  65184-4 0  9992
2 54151  82.5017 324.8890 0017522 151.1055 209.0999 12.42892669170139
GONETS-M 25             
1 54152U 22139C   26204.28490078  .00000027  00000+0  12230-3 0  9995
2 54152  82.5083 325.6033 0021441 149.9921 210.2392 12.42891106170139
SKIF-D                  
1 54153U 22139D   26204.03176281 -.00000011  00000+0  00000+0 0  9998
2 54153  89.9487  96.6578 0007491 184.1351 175.9306  5.00433848 65906
MATS                    
1 54227U 22147A   26204.00753808  .00002694  00000+0  19114-3 0  9990
2 54227  97.6843 205.4548 0014256  80.0132 280.2703 15.05539310203154
EOS-6 (OCEANSAT-3)      
1 54361U 22158A   26204.25862781  .00000236  00000+0  76952-4 0  9993
2 54361  98.3550 301.9755 0000865 152.1280 207.9959 14.46987769193059
DONGPO 09               
1 54685U 22167D   26204.28852576  .00012850  00000+0  35642-3 0  9991
2 54685  97.6927  16.9340 0002213  32.9449 327.1932 15.37071117200992
DONGPO 08               
1 54686U 22167E   26204.26793957  .00010951  00000+0  33176-3 0  9997
2 54686  97.6893  13.9176 0008848  49.0840 311.1167 15.34304362200859
DONGPO 10               
1 54689U 22167H   26204.32063061  .00011132  00000+0  32887-3 0  9993
2 54689  97.6973  16.0097 0004265   1.0047 359.1203 15.35125513200902
JILIN-1 GAOFEN 03D48    
1 54695U 22167P   26204.29992580  .00012131  00000+0  34909-3 0  9990
2 54695  97.6908  15.3791 0005723   2.1989 357.9278 15.35922107200932
STAR VIBE               
1 55009U 23001A   26204.29020706  .00014822  00000+0  33214-3 0  9997
2 55009  97.3150 268.9189 0004614   2.9338 357.1936 15.43519744197799
BRO-8                   
1 55011U 23001C   26204.19752491  .00039917  00000+0  68267-3 0  9990
2 55011  97.3180 269.9503 0004054   7.9191 352.2125 15.51161134197786
CONNECTA T1.2           
1 55012U 23001D   26204.27439083  .00045732  00000+0  72108-3 0  9990
2 55012  97.3235 275.6691 0003382 323.3556  36.7466 15.53408638198141
BIRKELAND               
1 55015U 23001G   26204.26506985  .00009347  00000+0  23137-3 0  9998
2 55015  97.3328 272.3377 0005477 351.5848   8.5305 15.40636916197906
ION SCV-008             
1 55051U 23001AU  26204.23753278  .00006809  00000+0  24434-3 0  9995
2 55051  97.5712 301.1698 0013418 241.6432 118.3455 15.28950166196844
ION SCV-007             
1 55060U 23001BD  26204.15722043  .00000342  00000+0  55031-4 0  9996
2 55060  97.8985 266.4551 0011531 214.1371 145.9099 14.77581247191568
HUYGENS                 
1 55093U 23001CN  26204.26515065  .00009474  00000+0  23435-3 0  9995
2 55093  97.3231 271.5205 0007613 320.1768  39.8919 15.40639921197922
SHARJAHSAT-1            
1 55104U 23001CZ  26204.14237734  .00023382  00000+0  41301-3 0  9995
2 55104  97.3141 273.4359 0003990 350.5498   9.5678 15.50351813198061
HORUS 1                 
1 55690U 23025A   26204.27909956  .00005976  00000+0  25488-3 0  9994
2 55690  97.3447 278.1139 0001817 113.7341 246.4087 15.23290398189549
