OBJECT_NAME,OBJECT_ID,EPOCH,MEAN_MOTION,ECCENTRICITY,INCLINATION,RA_OF_ASC_NODE,ARG_OF_PERICENTER,MEAN_ANOMALY,EPHEMERIS_TYPE,CLASSIFICATION_TYPE,NORAD_CAT_ID,ELEMENT_SET_NO,REV_AT_EPOCH,BSTAR,MEAN_MOTION_DOT,MEAN_MOTION_DDOT
SHERPA-LTC2,2022-107BG,2026-07-22T21:15:16.724736,14.69960392,.03932489,53.2365,69.1826,326.2838,31.3674,0,U,53754,999,20779,.1766377E-3,.3297E-4,0
CENTISPACE-1 S3,2022-108A,2026-07-23T06:05:37.394592,14.61288678,.00108338,53.5323,266.1175,83.0091,277.2116,0,U,53757,999,20680,.78796275E-4,.202E-5,0
CENTISPACE-1 S4,2022-108B,2026-07-23T05:18:37.871424,14.61974157,.00102533,53.5297,263.5985,72.3794,287.8301,0,U,53758,999,20683,.83333013E-4,.23E-5,0
BLUEWALKER-3,2022-111AL,2026-07-22T18:42:04.411872,15.38668225,.00047896,53.2275,226.8231,299.0530,60.9995,0,U,53807,999,21568,.13556107E-3,.4863E-4,0
YUNHAI-1 03,2022-115A,2026-07-23T07:02:01.101984,14.32741706,.00037082,98.5551,201.9847,311.3328,48.7537,0,U,53877,999,20068,.12645709E-3,.301E-5,0
CENTISPACE-1 S5,2022-126A,2026-07-23T03:46:48.773280,14.63067678,.00139426,54.9991,69.0119,139.8947,220.3079,0,U,54020,999,20230,.16667576E-3,.673E-5,0
CENTISPACE-1 S6,2022-126B,2026-07-23T05:41:27.155040,14.62325736,.00157113,54.9994,70.7283,141.5279,218.6838,0,U,54021,999,20227,.12584362E-3,.452E-5,0
OTB-3-GAZELLE,2022-127A,2026-07-22T17:00:27.124128,14.42685986,.00144628,98.3967,194.8758,82.2362,278.0469,0,U,54023,999,19948,.48807974E-4,.119E-5,0
ASO-S,2022-129A,2026-07-23T07:01:11.521344,14.52077838,.00139554,98.2762,208.8581,347.5939,12.4911,0,U,54029,999,20066,.60257213E-4,.199E-5,0
HJ-2E,2022-132A,2026-07-23T07:11:51.658944,15.22774804,.00183284,97.3812,208.0391,238.9304,121.0135,0,U,54035,999,20991,.35922216E-3,.8361E-4,0
COSMOS 2561,2022-137A,2026-07-20T21:07:52.266720,15.52463802,.0008242,96.9163,259.6361,255.0048,105.0294,0,U,54109,999,21157,.15383E-3,.933E-4,0
GONETS-M 23,2022-139A,2026-07-23T07:48:34.484832,12.42892237,.00224049,82.5101,325.8372,141.4240,218.8446,0,U,54150,999,17013,.14028468E-3,.29E-6,0
GONETS-M 24,2022-139B,2026-07-23T07:09:46.376352,12.42892669,.00175221,82.5017,324.8890,151.1055,209.0999,0,U,54151,999,17013,.65183986E-4,.19E-6,0
GONETS-M 25,2022-139C,2026-07-23T06:50:15.427392,12.42891106,.00214418,82.5083,325.6033,149.9921,210.2392,0,U,54152,999,17013,.12230494E-3,.27E-6,0
SKIF-D,2022-139D,2026-07-23T00:45:44.306784,5.00433848,.00074913,89.9487,96.6578,184.1351,175.9306,0,U,54153,999,6590,0,-.11E-6,0
MATS,2022-147A,2026-07-23T00:10:51.290112,15.05539310,.00142566,97.6843,205.4548,80.0132,280.2703,0,U,54227,999,20315,.19114388E-3,.2694E-4,0
EOS-6 (OCEANSAT-3),2022-158A,2026-07-23T06:12:25.442784,14.46987769,.00008652,98.3550,301.9755,152.1280,207.9959,0,U,54361,999,19305,.76951517E-4,.236E-5,0
DONGPO 09,2022-167D,2026-07-23T06:55:28.625664,15.37071117,.00022133,97.6927,16.9340,32.9449,327.1932,0,U,54685,999,20099,.35642054E-3,.1285E-3,0
DONGPO 08,2022-167E,2026-07-23T06:25:49.978848,15.34304362,.00088482,97.6893,13.9176,49.0840,311.1167,0,U,54686,999,20085,.33175519E-3,.10951E-3,0
DONGPO 10,2022-167H,2026-07-23T07:41:42.484704,15.35125513,.00042659,97.6973,16.0097,1.0047,359.1203,0,U,54689,999,20090,.32886951E-3,.11132E-3,0
JILIN-1 GAOFEN 03D48,2022-167P,2026-07-23T07:11:53.589120,15.35922107,.00057234,97.6908,15.3791,2.1989,357.9278,0,U,54695,999,20093,.349087E-3,.12131E-3,0
STAR VIBE,2023-001A,2026-07-23T06:57:53.889984,15.43519744,.00046145,97.3150,268.9189,2.9338,357.1936,0,U,55009,999,19779,.3321383E-3,.14822E-3,0
BRO-8,2023-001C,2026-07-23T04:44:26.152224,15.51161134,.00040544,97.3180,269.9503,7.9191,352.2125,0,U,55011,999,19778,.68266567E-3,.39917E-3,0
CONNECTA T1.2,2023-001D,2026-07-23T06:35:07.367712,15.53408638,.00033829,97.3235,275.6691,323.3556,36.7466,0,U,55012,999,19814,.72108175E-3,.45732E-3,0
BIRKELAND,2023-001G,2026-07-23T06:21:42.035040,15.40636916,.00054777,97.3328,272.3377,351.5848,8.5305,0,U,55015,999,19790,.23136864E-3,.9347E-4,0
ION SCV-008,2023-001AU,2026-07-23T05:42:02.832192,15.28950166,.00134186,97.5712,301.1698,241.6432,118.3455,0,U,55051,999,19684,.24434084E-3,.6809E-4,0
ION SCV-007,2023-001BD,2026-07-23T03:46:23.845152,14.77581247,.00115317,97.8985,266.4551,214.1371,145.9099,0,U,55060,999,19156,.55031356E-4,.342E-5,0
HUYGENS,2023-001CN,2026-07-23T06:21:49.016160,15.40639921,.00076138,97.3231,271.5205,320.1768,39.8919,0,U,55093,999,19792,.23434986E-3,.9474E-4,0
SHARJAHSAT-1,2023-001CZ,2026-07-23T03:25:01.402176,15.50351813,.00039901,97.3141,273.4359,350.5498,9.5678,0,U,55104,999,19806,.41301477E-3,.23382E-3,0
HORUS 1,2023-025A,2026-07-23T06:41:54.201984,15.23290398,.00018175,97.3447,278.1139,113.7341,246.4087,0,U,55690,999,18954,.25487838E-3,.5976E-4,0
